[{"OBJECT_NAME":"NOAA 18","OBJECT_ID":"2005-018A","EPOCH":"2026-04-10T05:58:37.901856","MEAN_MOTION":14.13717644,"ECCENTRICITY":0.00139,"INCLINATION":98.8119,"RA_OF_ASC_NODE":180.9081,"ARG_OF_PERICENTER":348.5022,"MEAN_ANOMALY":11.5831,"EPHEMERIS_TYPE":0,"CLASSIFICATION_TYPE":"U","NORAD_CAT_ID":28654,"ELEMENT_SET_NO":999,"REV_AT_EPOCH":7671,"BSTAR":4.4849502e-5,"MEAN_MOTION_DOT":4.1e-7,"MEAN_MOTION_DDOT":0},{"OBJECT_NAME":"NOAA 19","OBJECT_ID":"2009-005A","EPOCH":"2026-04-10T05:39:39.411648","MEAN_MOTION":14.1346331,"ECCENTRICITY":0.00131594,"INCLINATION":98.9553,"RA_OF_ASC_NODE":171.0511,"ARG_OF_PERICENTER":218.9792,"MEAN_ANOMALY":141.0433,"EPHEMERIS_TYPE":0,"CLASSIFICATION_TYPE":"U","NORAD_CAT_ID":33591,"ELEMENT_SET_NO":999,"REV_AT_EPOCH":88488,"BSTAR":4.5981904e-5,"MEAN_MOTION_DOT":4.2e-7,"MEAN_MOTION_DDOT":0},{"OBJECT_NAME":"SUOMI NPP","OBJECT_ID":"2011-061A","EPOCH":"2026-04-10T06:00:54.927072","MEAN_MOTION":14.19502639,"ECCENTRICITY":0.00022705,"INCLINATION":98.7907,"RA_OF_ASC_NODE":41.6089,"ARG_OF_PERICENTER":132.8779,"MEAN_ANOMALY":227.2588,"EPHEMERIS_TYPE":0,"CLASSIFICATION_TYPE":"U","NORAD_CAT_ID":37849,"ELEMENT_SET_NO":999,"REV_AT_EPOCH":74880,"BSTAR":6.2470075e-5,"MEAN_MOTION_DOT":8.7e-7,"MEAN_MOTION_DDOT":0},{"OBJECT_NAME":"NOAA 20 (JPSS-1)","OBJECT_ID":"2017-073A","EPOCH":"2026-04-10T06:21:09.509760","MEAN_MOTION":14.19544713,"ECCENTRICITY":0.00021175,"INCLINATION":98.7727,"RA_OF_ASC_NODE":40.3453,"ARG_OF_PERICENTER":94.9653,"MEAN_ANOMALY":265.1765,"EPHEMERIS_TYPE":0,"CLASSIFICATION_TYPE":"U","NORAD_CAT_ID":43013,"ELEMENT_SET_NO":999,"REV_AT_EPOCH":43483,"BSTAR":5.7120736e-5,"MEAN_MOTION_DOT":7.6e-7,"MEAN_MOTION_DDOT":0}]
