NOAA 18                 
1 28654U 05018A   26100.24904979  .00000041  00000+0  44850-4 0  9991
2 28654  98.8119 180.9081 0013900 348.5022  11.5831 14.13717644 76715
NOAA 19                 
1 33591U 09005A   26100.23587282  .00000042  00000+0  45982-4 0  9998
2 33591  98.9553 171.0511 0013159 218.9792 141.0433 14.13463310884883
SUOMI NPP               
1 37849U 11061A   26100.25063573  .00000087  00000+0  62470-4 0  9997
2 37849  98.7907  41.6089 0002270 132.8779 227.2588 14.19502639748800
NOAA 20 (JPSS-1)        
1 43013U 17073A   26100.26469340  .00000076  00000+0  57121-4 0  9994
2 43013  98.7727  40.3453 0002117  94.9653 265.1765 14.19544713434832
